# Made by eph2tle, compiled Jan  5 2024 10:09:35
# Run at Tue Jan  9 16:54:01 2024
#
# No updates   (headed for heliocentric orbit)
#
#    The following TLEs (Two-Line Elements) were generated by fitting
# a numerically-integrated ephemeris,  based on the orbit given below,
# to the SDP4/SGP4 models.  Each TLE is good for the interval between
# its epoch and the epoch of the subsequent TLE (usually one day).
# The maximum deviation between the numerically integrated ephemerides
# and the TLE-based ephemeris, in kilometers,  is given for each TLE
# as the "worst residual".
#
#    This fitting is done using the 'eph2tle' code packaged with Find_Orb.
# The code has details on how the TLEs were computed :
#
#    https://github.com/Bill-Gray/find_orb/eph2tle.cpp
#
#    Be warned:  the error given is that between the numerically
# integrated ephems and the TLE model.  There will usually be at
# least some additional difference between the ephems and the actual
# motion of the satellite,  especially if the ephemerides are based
# on a short arc.  If the following orbital elements say something
# like "[based on] 10 observations 2015 Jan. 1-13",  and the TLEs
# are for 2015 May,  the extrapolation may be tenuous at best.  If
# your application requires a specific level of accuracy,  you may
# want to contact me;  I can give you some idea as to the fit of the
# underlying data (and possibly TLEs based on newer data).
#
#   You can usually find the underlying observational data,  and the
# fitted orbit,  residuals,  ephemerides,  and sometimes some comments
# about the object,  among the pages listed at
#
#    https://www.projectpluto.com/pluto/mpecs/pseudo.htm
#
#    WARNING:  for this object,  "normal" TLEs cannot be fitted.  (This
# usually means an object with an hyperbolic or nearly-parabolic orbit.)
# For this and similar cases,   an alternative model is used,  in which
# most of the traditional TLE data is replaced by six signed 8-digit hex
# numbers.  These six numbers are a state vector,  numerically integrated
# using a simplified force model.  This is necessary for objects at L2 or
# L1,  and sometimes for objects in high orbits where the SDP4/SGP4 model
# fails.  Some documentation is in 'get_el.cpp' in the source code at
# https://www.github.com/Bill-Gray/sat_code ; look for 'hex' in that file,
# with the actual integration done in 'sdp4.cpp'.  But be aware:  it's my
# own extension,  doesn't work with other code,  and is therefore used
# only when necessary.
#
#    Also,  if you use a TLE outside the "correct" time range (between
# its MJD and that of the next TLE),  all bets are off.  I've carefully
# computed and minimized the worst error over the "correct" time frame,
# but the ephemeris may (or may not) diverge wildly outside of it.
#
# Ephem range: 60317.500000 60410.500000 1.000000
# Created Tue Jan  9 16:53:15 2024
# Ephemeris start:  8 Jan 2024 12:00:00
# Ephemeris end:   10 Apr 2024 12:00:00
# Times are all TDT
# Positions/velocities are in equatorial J2000
# Orbital elements:  Peregrine Centaur
#    Perigee 2024 Jan 8.33621 +/- 0.00935 TT =  8:04:08 (JD 2460317.83621)
# Epoch 2024 Jan 10.0 TT = JDT 2460319.5                           Find_Orb
# q  7230.43911 +/- 6.91              (J2000 equator)
# H   25.84 G 0.15                    Peri.  262.14915 +/- 0.26
#                                     Node    25.93475 +/- 0.08
# e   1.0843820 +/- 0.00188           Incl.   27.05787 +/- 0.028
# From 53 observations 2024 Jan. 9 (3.0 hr); mean residual 0".176
#
# 1 NoradU COSPAR   Epoch.epoch     dn/dt/2  d2n/dt2/6 BSTAR    T El# C
# 2 NoradU Inclina RAAscNode Eccent  ArgPeri MeanAno  MeanMotion Rev# C

# Worst residual: 0.28 km
# MJD 60317.500000 (2024 Jan  8 12:00)
Peregrine Centaur
1 58752U 24006B   24008.49919926 +000J1JXE +000ZOMMP +000C3056H 22002
2 58752                          +0004OL56 +000LINMM +0008T1YC     03

# Worst residual: 1.39 km
# MJD 60318.500000 (2024 Jan  9 12:00)
Peregrine Centaur
1 58752U 24006B   24009.49919926 +0015BJ97 +004WW1SC +001ZROK1H 22007
2 58752                          +0001ZWXW +000EFYXX +000661SF     03

# Worst residual: 4.00 km
# MJD 60319.500000 (2024 Jan 10 12:00)
Peregrine Centaur
1 58752U 24006B   24010.49919926 +001LEJUD +0088L76M +003EZJ9FH 22002
2 58752                          +0001RN3O +000DFTIF +0005RAVT     08

# Worst residual: 1.27 km
# MJD 60320.500000 (2024 Jan 11 12:00)
Peregrine Centaur
1 58752U 24006B   24011.49919926 +002076AC +00BEOYNN +004RWV75H 22002
2 58752                          +0001NYPE +000D0TKT +0005L53U     03

# Worst residual: 0.83 km
# MJD 60321.500000 (2024 Jan 12 12:00)
Peregrine Centaur
1 58752U 24006B   24012.49919926 +002E9LUK +00EI697B +0063RGRHH 22004
2 58752                          +0001LCP4 +000CSXPT +0005HX6I     05

# Worst residual: 1.05 km
# MJD 60322.500000 (2024 Jan 13 12:00)
Peregrine Centaur
1 58752U 24006B   24013.49919926 +002RQX6G +00HK7BX8 +007F0UV7H 22000
2 58752                          +0001J08E +000CODDG +0005G2YI     05

# Worst residual: 1.07 km
# MJD 60323.500000 (2024 Jan 14 12:00)
Peregrine Centaur
1 58752U 24006B   24014.49919926 +0034O2SW +00KLDJ4W +008PXWULH 22005
2 58752                          +0001GNUI +000CLMI6 +0005EZVX     01

# Worst residual: 0.96 km
# MJD 60324.500000 (2024 Jan 15 12:00)
Peregrine Centaur
1 58752U 24006B   24015.49919926 +003H0MIG +00NM13LP +00A0NOM5H 22007
2 58752                          +0001E88B +000CJZ0V +0005ECY9     00

# Worst residual: 0.85 km
# MJD 60325.500000 (2024 Jan 16 12:00)
Peregrine Centaur
1 58752U 24006B   24016.49919926 +003SRNGI +00QMDMX9 +00BB998ZH 22004
2 58752                          +0001BOHH +000CJ0TY +0005E05U     00

# Worst residual: 0.85 km
# MJD 60326.500000 (2024 Jan 17 12:00)
Peregrine Centaur
1 58752U 24006B   24017.49919926 +0043W5V5 +00TMK5FS +00CLSM7HH 22006
2 58752                          +000190OH +000CIJT9 +0005DU2Q     05

# Worst residual: 0.96 km
# MJD 60327.500000 (2024 Jan 18 12:00)
Peregrine Centaur
1 58752U 24006B   24018.49919926 +004ED86W +00WMO4X1 +00DWB3XBH 22004
2 58752                          +0001696T +000CIF55 +0005DSOD     06

# Worst residual: 1.15 km
# MJD 60328.500000 (2024 Jan 19 12:00)
Peregrine Centaur
1 58752U 24006B   24019.49919926 +004O60BL +00ZMS6FN +00F6TPCQH 22001
2 58752                          +00013EED +000CIJWS +0005DUSC     08

# Worst residual: 1.37 km
# MJD 60329.500000 (2024 Jan 20 12:00)
Peregrine Centaur
1 58752U 24006B   24020.49919926 +004X9QZJ +012MYB9U +00GHD5N9H 22000
2 58752                          +00010GKK +000CIWCM +0005DZQL     05

# Worst residual: 1.57 km
# MJD 60330.500000 (2024 Jan 21 12:00)
Peregrine Centaur
1 58752U 24006B   24021.49919926 +0055NQHG +015N88P9 +00HRY3LUH 22006
2 58752                          +0000XFSV +000CJFE1 +0005E762     00

# Worst residual: 1.75 km
# MJD 60331.500000 (2024 Jan 22 12:00)
Peregrine Centaur
1 58752U 24006B   24022.49919926 +005DB977 +018NNGOV +00J2L3S2H 22007
2 58752                          +0000UC0L +000CK4DJ +0005EGWC     08

# Worst residual: 1.92 km
# MJD 60332.500000 (2024 Jan 23 12:00)
Peregrine Centaur
1 58752U 24006B   24023.49919926 +005K7K4Y +01BO9CQE +00KDAPORH 22000
2 58752                          +0000R4Z0 +000CKYWH +0005ESUY     08

# Worst residual: 2.09 km
# MJD 60333.500000 (2024 Jan 24 12:00)
Peregrine Centaur
1 58752U 24006B   24024.49919926 +005QBTJV +01EP37FR +00LO3GIDH 22004
2 58752                          +0000NU9Z +000CLYOW +0005F719     00

# Worst residual: 2.23 km
# MJD 60334.500000 (2024 Jan 25 12:00)
Peregrine Centaur
1 58752U 24006B   24025.49919926 +005VN3QO +01HQ699X +00MYZVDCH 22009
2 58752                          +0000KFEU +000CN3IK +0005FNF8     05

# Worst residual: 2.35 km
# MJD 60335.500000 (2024 Jan 26 12:00)
Peregrine Centaur
1 58752U 24006B   24026.49919926 +00604C22 +01KRJOQR +00OA0HC4H 22006
2 58752                          +0000GVRA +000COD4X +0005G60A     04

# Worst residual: 2.43 km
# MJD 60336.500000 (2024 Jan 27 12:00)
Peregrine Centaur
1 58752U 24006B   24027.49919926 +0063QA78 +01NT8M4B +00PL5T8CH 22008
2 58752                          +0000D6MP +000CPR9W +0005GQQW     09

# Worst residual: 2.50 km
# MJD 60337.500000 (2024 Jan 28 12:00)
Peregrine Centaur
1 58752U 24006B   24028.49919926 +0066FJSS +01QVA2ZX +00QWGDBVH 22004
2 58752                          +00009BBA +000CR9L5 +0005HDK0     07

# Worst residual: 2.59 km
# MJD 60338.500000 (2024 Jan 29 12:00)
Peregrine Centaur
1 58752U 24006B   24029.49919926 +00686K9N +01TXP1PQ +00S7WMZZH 22008
2 58752                          +00005937 +000CSVNW +0005I2B5     05

# Worst residual: 2.74 km
# MJD 60339.500000 (2024 Jan 30 12:00)
Peregrine Centaur
1 58752U 24006B   24030.49919926 +0068XKUV +01X0ICSN +00TJJ2D8H 22007
2 58752                          +00000Z90 +000CUL16 +0005ISUF     00

# Worst residual: 2.97 km
# MJD 60340.500000 (2024 Jan 31 12:00)
Peregrine Centaur
1 58752U 24006B   24031.49919926 +0068MOT9 +0203QQGP +00UVC20BH 22003
2 58752                          -00003IVY +000CWD66 +0005JKYT     00

# Worst residual: 3.24 km
# MJD 60341.500000 (2024 Feb  1 12:00)
Peregrine Centaur
1 58752U 24006B   24032.49919926 +00677TIE +0237ES7H +00W7BYOQH 22000
2 58752                          -000089ZY +000CY7I9 +0005KEGA     08

# Worst residual: 3.47 km
# MJD 60342.500000 (2024 Feb  2 12:00)
Peregrine Centaur
1 58752U 24006B   24033.49919926 +0064MQHX +026BIYCS +00XJJ33DH 22009
2 58752                          -0000DARG +000D03EX +0005L91L     08

# Worst residual: 3.57 km
# MJD 60343.500000 (2024 Feb  3 12:00)
Peregrine Centaur
1 58752U 24006B   24034.49919926 +0060T1DO +029G3JIS +00YVXNJCH 22007
2 58752                          -0000ILVK +000D206Y +0005M4FZ     07

# Worst residual: 3.49 km
# MJD 60344.500000 (2024 Feb  4 12:00)
Peregrine Centaur
1 58752U 24006B   24035.49919926 +005VO5LJ +02CL4NSX +0108JTHRH 22002
2 58752                          -0000O82J +000D3X0W +0005N0AG     08

